{"type":"FeatureCollection","features":[{"type":"Feature","geometry":{"type":"Polygon","coordinates":[[[-41.312748,-21.655039],[-41.314023,-21.654928],[-41.316751,-21.656541],[-41.316198,-21.657061],[-41.316004,-21.657315],[-41.315813,-21.657297],[-41.314838,-21.656659],[-41.312364,-21.655721],[-41.312748,-21.655039],[-41.312748,-21.655039]]]},"properties":{"nome":"\u00c1REA 1065","tipo":"area","bairro":"CANA\u00c3"}},{"type":"Feature","geometry":{"type":"Polygon","coordinates":[[[-41.314023,-21.654928],[-41.31274,-21.65504],[-41.312653,-21.654165],[-41.313321,-21.653206],[-41.318307,-21.656147],[-41.31677,-21.656541],[-41.314023,-21.654928],[-41.314023,-21.654928]]]},"properties":{"nome":"\u00c1REA 1066","tipo":"area","bairro":"CANA\u00c3"}},{"type":"Feature","geometry":{"type":"Polygon","coordinates":[[[-41.318772,-21.655127],[-41.318858,-21.656218],[-41.318035,-21.655979],[-41.313304,-21.653211],[-41.313889,-21.652404],[-41.316683,-21.653888],[-41.318772,-21.655127],[-41.318772,-21.655127]]]},"properties":{"nome":"\u00c1REA 1067","tipo":"area","bairro":"CANA\u00c3"}},{"type":"Feature","geometry":{"type":"Polygon","coordinates":[[[-41.31399,-21.652494],[-41.314035,-21.652324],[-41.316142,-21.652327],[-41.31867,-21.653745],[-41.318757,-21.655114],[-41.31399,-21.652494],[-41.31399,-21.652494]]]},"properties":{"nome":"\u00c1REA 1068","tipo":"area","bairro":"CANA\u00c3"}},{"type":"Feature","geometry":{"type":"Polygon","coordinates":[[[-41.318072,-21.65152],[-41.317545,-21.652334],[-41.31406,-21.65232],[-41.3127,-21.654285],[-41.312219,-21.653867],[-41.313168,-21.652351],[-41.311536,-21.652324],[-41.31159,-21.651255],[-41.318072,-21.65152],[-41.318072,-21.65152]]]},"properties":{"nome":"\u00c1REA 1069","tipo":"area","bairro":"CANA\u00c3"}},{"type":"Feature","geometry":{"type":"Polygon","coordinates":[[[-41.313353,-21.650344],[-41.318368,-21.650366],[-41.318413,-21.650825],[-41.318672,-21.653726],[-41.316116,-21.652311],[-41.317549,-21.652337],[-41.317979,-21.651524],[-41.31713,-21.651464],[-41.313434,-21.651339],[-41.313353,-21.650344],[-41.313353,-21.650344]]]},"properties":{"nome":"\u00c1REA 1070","tipo":"area","bairro":"CANA\u00c3"}},{"type":"Feature","geometry":{"type":"Polygon","coordinates":[[[-41.3154,-21.680295],[-41.311121,-21.68067],[-41.311221,-21.679062],[-41.315408,-21.678703],[-41.3154,-21.680295],[-41.3154,-21.680295]]]},"properties":{"nome":"\u00c1REA 1071","tipo":"area","bairro":"CANA\u00c3"}},{"type":"Feature","geometry":{"type":"Polygon","coordinates":[[[-41.315413,-21.678718],[-41.311123,-21.679062],[-41.311157,-21.677469],[-41.311533,-21.676889],[-41.313041,-21.676954],[-41.314933,-21.677756],[-41.315413,-21.678718],[-41.315413,-21.678718]]]},"properties":{"nome":"\u00c1REA 1072","tipo":"area","bairro":"CANA\u00c3"}},{"type":"Feature","geometry":{"type":"Polygon","coordinates":[[[-41.311147,-21.684058],[-41.311107,-21.683097],[-41.316125,-21.682657],[-41.316338,-21.683987],[-41.315858,-21.684044],[-41.315832,-21.683508],[-41.311147,-21.684058],[-41.311147,-21.684058]]]},"properties":{"nome":"\u00c1REA 1073","tipo":"area","bairro":"CANA\u00c3"}},{"type":"Feature","geometry":{"type":"Polygon","coordinates":[[[-41.319704,-21.686666],[-41.319836,-21.687921],[-41.311692,-21.688547],[-41.311643,-21.687373],[-41.319704,-21.686666],[-41.319704,-21.686666]]]},"properties":{"nome":"\u00c1REA 1074","tipo":"area","bairro":"CANA\u00c3"}},{"type":"Feature","geometry":{"type":"Polygon","coordinates":[[[-41.315376,-21.685832],[-41.318593,-21.685477],[-41.318631,-21.685866],[-41.318325,-21.685881],[-41.318426,-21.686778],[-41.31543,-21.687039],[-41.315376,-21.685832],[-41.315376,-21.685832]]]},"properties":{"nome":"\u00c1REA 1075","tipo":"area","bairro":"CANA\u00c3"}},{"type":"Feature","geometry":{"type":"Polygon","coordinates":[[[-41.313298,-21.693215],[-41.313318,-21.694329],[-41.311237,-21.694519],[-41.311261,-21.693181],[-41.312459,-21.693077],[-41.312455,-21.693234],[-41.313298,-21.693215],[-41.313298,-21.693215]]]},"properties":{"nome":"\u00c1REA 1076","tipo":"area","bairro":"CANA\u00c3"}},{"type":"Feature","geometry":{"type":"Point","coordinates":[-41.316478,-21.656631]},"properties":{"nome":"1","tipo":"abertura","bairro":"CANA\u00c3"}},{"type":"Feature","geometry":{"type":"Point","coordinates":[-41.315799,-21.656238]},"properties":{"nome":"2","tipo":"abertura","bairro":"CANA\u00c3"}},{"type":"Feature","geometry":{"type":"Point","coordinates":[-41.315158,-21.655873]},"properties":{"nome":"3","tipo":"abertura","bairro":"CANA\u00c3"}},{"type":"Feature","geometry":{"type":"Point","coordinates":[-41.314941,-21.656166]},"properties":{"nome":"4","tipo":"abertura","bairro":"CANA\u00c3"}},{"type":"Feature","geometry":{"type":"Point","coordinates":[-41.314758,-21.656465]},"properties":{"nome":"5","tipo":"abertura","bairro":"CANA\u00c3"}},{"type":"Feature","geometry":{"type":"Point","coordinates":[-41.315442,-21.656722]},"properties":{"nome":"6","tipo":"abertura","bairro":"CANA\u00c3"}},{"type":"Feature","geometry":{"type":"Point","coordinates":[-41.31594,-21.657169]},"properties":{"nome":"7","tipo":"abertura","bairro":"CANA\u00c3"}},{"type":"Feature","geometry":{"type":"Point","coordinates":[-41.313897,-21.65621]},"properties":{"nome":"8","tipo":"abertura","bairro":"CANA\u00c3"}},{"type":"Feature","geometry":{"type":"Point","coordinates":[-41.313038,-21.655893]},"properties":{"nome":"9","tipo":"abertura","bairro":"CANA\u00c3"}},{"type":"Feature","geometry":{"type":"Point","coordinates":[-41.312816,-21.655642]},"properties":{"nome":"10","tipo":"abertura","bairro":"CANA\u00c3"}},{"type":"Feature","geometry":{"type":"Point","coordinates":[-41.313332,-21.65561]},"properties":{"nome":"11","tipo":"abertura","bairro":"CANA\u00c3"}},{"type":"Feature","geometry":{"type":"Point","coordinates":[-41.314151,-21.655896]},"properties":{"nome":"12","tipo":"abertura","bairro":"CANA\u00c3"}},{"type":"Feature","geometry":{"type":"Point","coordinates":[-41.317805,-21.65611]},"properties":{"nome":"1","tipo":"abertura","bairro":"CANA\u00c3"}},{"type":"Feature","geometry":{"type":"Point","coordinates":[-41.317137,-21.655725]},"properties":{"nome":"2","tipo":"abertura","bairro":"CANA\u00c3"}},{"type":"Feature","geometry":{"type":"Point","coordinates":[-41.316453,-21.655326]},"properties":{"nome":"3","tipo":"abertura","bairro":"CANA\u00c3"}},{"type":"Feature","geometry":{"type":"Point","coordinates":[-41.315767,-21.654926]},"properties":{"nome":"4","tipo":"abertura","bairro":"CANA\u00c3"}},{"type":"Feature","geometry":{"type":"Point","coordinates":[-41.315007,-21.654473]},"properties":{"nome":"5","tipo":"abertura","bairro":"CANA\u00c3"}},{"type":"Feature","geometry":{"type":"Point","coordinates":[-41.314295,-21.654067]},"properties":{"nome":"6","tipo":"abertura","bairro":"CANA\u00c3"}},{"type":"Feature","geometry":{"type":"Point","coordinates":[-41.313558,-21.653639]},"properties":{"nome":"7","tipo":"abertura","bairro":"CANA\u00c3"}},{"type":"Feature","geometry":{"type":"Point","coordinates":[-41.313278,-21.654116]},"properties":{"nome":"8","tipo":"abertura","bairro":"CANA\u00c3"}},{"type":"Feature","geometry":{"type":"Point","coordinates":[-41.313982,-21.654532]},"properties":{"nome":"9","tipo":"abertura","bairro":"CANA\u00c3"}},{"type":"Feature","geometry":{"type":"Point","coordinates":[-41.314652,-21.654936]},"properties":{"nome":"10","tipo":"abertura","bairro":"CANA\u00c3"}},{"type":"Feature","geometry":{"type":"Point","coordinates":[-41.315441,-21.655376]},"properties":{"nome":"11","tipo":"abertura","bairro":"CANA\u00c3"}},{"type":"Feature","geometry":{"type":"Point","coordinates":[-41.316197,-21.655826]},"properties":{"nome":"12","tipo":"abertura","bairro":"CANA\u00c3"}},{"type":"Feature","geometry":{"type":"Point","coordinates":[-41.316935,-21.656246]},"properties":{"nome":"13","tipo":"abertura","bairro":"CANA\u00c3"}},{"type":"Feature","geometry":{"type":"Point","coordinates":[-41.313583,-21.654952]},"properties":{"nome":"14","tipo":"abertura","bairro":"CANA\u00c3"}},{"type":"Feature","geometry":{"type":"Point","coordinates":[-41.31288,-21.654557]},"properties":{"nome":"15","tipo":"abertura","bairro":"CANA\u00c3"}},{"type":"Feature","geometry":{"type":"Point","coordinates":[-41.318533,-21.655355]},"properties":{"nome":"1","tipo":"abertura","bairro":"CANA\u00c3"}},{"type":"Feature","geometry":{"type":"Point","coordinates":[-41.317928,-21.654966]},"properties":{"nome":"2","tipo":"abertura","bairro":"CANA\u00c3"}},{"type":"Feature","geometry":{"type":"Point","coordinates":[-41.317133,-21.654509]},"properties":{"nome":"3","tipo":"abertura","bairro":"CANA\u00c3"}},{"type":"Feature","geometry":{"type":"Point","coordinates":[-41.316358,-21.65407]},"properties":{"nome":"4","tipo":"abertura","bairro":"CANA\u00c3"}},{"type":"Feature","geometry":{"type":"Point","coordinates":[-41.315644,-21.653653]},"properties":{"nome":"5","tipo":"abertura","bairro":"CANA\u00c3"}},{"type":"Feature","geometry":{"type":"Point","coordinates":[-41.314947,-21.65321]},"properties":{"nome":"6","tipo":"abertura","bairro":"CANA\u00c3"}},{"type":"Feature","geometry":{"type":"Point","coordinates":[-41.31419,-21.652779]},"properties":{"nome":"7","tipo":"abertura","bairro":"CANA\u00c3"}},{"type":"Feature","geometry":{"type":"Point","coordinates":[-41.318364,-21.655913]},"properties":{"nome":"8","tipo":"abertura","bairro":"CANA\u00c3"}},{"type":"Feature","geometry":{"type":"Point","coordinates":[-41.317597,-21.655439]},"properties":{"nome":"9","tipo":"abertura","bairro":"CANA\u00c3"}},{"type":"Feature","geometry":{"type":"Point","coordinates":[-41.316832,-21.654962]},"properties":{"nome":"10","tipo":"abertura","bairro":"CANA\u00c3"}},{"type":"Feature","geometry":{"type":"Point","coordinates":[-41.316053,-21.65452]},"properties":{"nome":"11","tipo":"abertura","bairro":"CANA\u00c3"}},{"type":"Feature","geometry":{"type":"Point","coordinates":[-41.315362,-21.654137]},"properties":{"nome":"12","tipo":"abertura","bairro":"CANA\u00c3"}},{"type":"Feature","geometry":{"type":"Point","coordinates":[-41.314662,-21.653706]},"properties":{"nome":"13","tipo":"abertura","bairro":"CANA\u00c3"}},{"type":"Feature","geometry":{"type":"Point","coordinates":[-41.313897,-21.653253]},"properties":{"nome":"14","tipo":"abertura","bairro":"CANA\u00c3"}},{"type":"Feature","geometry":{"type":"Point","coordinates":[-41.31854,-21.653949]},"properties":{"nome":"1","tipo":"abertura","bairro":"CANA\u00c3"}},{"type":"Feature","geometry":{"type":"Point","coordinates":[-41.317829,-21.653522]},"properties":{"nome":"2","tipo":"abertura","bairro":"CANA\u00c3"}},{"type":"Feature","geometry":{"type":"Point","coordinates":[-41.317024,-21.653024]},"properties":{"nome":"3","tipo":"abertura","bairro":"CANA\u00c3"}},{"type":"Feature","geometry":{"type":"Point","coordinates":[-41.316236,-21.652608]},"properties":{"nome":"4","tipo":"abertura","bairro":"CANA\u00c3"}},{"type":"Feature","geometry":{"type":"Point","coordinates":[-41.318232,-21.654498]},"properties":{"nome":"5","tipo":"abertura","bairro":"CANA\u00c3"}},{"type":"Feature","geometry":{"type":"Point","coordinates":[-41.317485,-21.654042]},"properties":{"nome":"6","tipo":"abertura","bairro":"CANA\u00c3"}},{"type":"Feature","geometry":{"type":"Point","coordinates":[-41.316683,-21.653587]},"properties":{"nome":"7","tipo":"abertura","bairro":"CANA\u00c3"}},{"type":"Feature","geometry":{"type":"Point","coordinates":[-41.315939,-21.653133]},"properties":{"nome":"8","tipo":"abertura","bairro":"CANA\u00c3"}},{"type":"Feature","geometry":{"type":"Point","coordinates":[-41.315213,-21.652712]},"properties":{"nome":"9","tipo":"abertura","bairro":"CANA\u00c3"}},{"type":"Feature","geometry":{"type":"Point","coordinates":[-41.317327,-21.65178]},"properties":{"nome":"1","tipo":"abertura","bairro":"CANA\u00c3"}},{"type":"Feature","geometry":{"type":"Point","coordinates":[-41.31641,-21.651763]},"properties":{"nome":"2","tipo":"abertura","bairro":"CANA\u00c3"}},{"type":"Feature","geometry":{"type":"Point","coordinates":[-41.315543,-21.651731]},"properties":{"nome":"3","tipo":"abertura","bairro":"CANA\u00c3"}},{"type":"Feature","geometry":{"type":"Point","coordinates":[-41.314649,-21.651721]},"properties":{"nome":"4","tipo":"abertura","bairro":"CANA\u00c3"}},{"type":"Feature","geometry":{"type":"Point","coordinates":[-41.313775,-21.651715]},"properties":{"nome":"5","tipo":"abertura","bairro":"CANA\u00c3"}},{"type":"Feature","geometry":{"type":"Point","coordinates":[-41.312711,-21.651751]},"properties":{"nome":"6","tipo":"abertura","bairro":"CANA\u00c3"}},{"type":"Feature","geometry":{"type":"Point","coordinates":[-41.31755,-21.65229]},"properties":{"nome":"7","tipo":"abertura","bairro":"CANA\u00c3"}},{"type":"Feature","geometry":{"type":"Point","coordinates":[-41.316828,-21.652323]},"properties":{"nome":"8","tipo":"abertura","bairro":"CANA\u00c3"}},{"type":"Feature","geometry":{"type":"Point","coordinates":[-41.315846,-21.652342]},"properties":{"nome":"9","tipo":"abertura","bairro":"CANA\u00c3"}},{"type":"Feature","geometry":{"type":"Point","coordinates":[-41.314925,-21.652268]},"properties":{"nome":"10","tipo":"abertura","bairro":"CANA\u00c3"}},{"type":"Feature","geometry":{"type":"Point","coordinates":[-41.31395,-21.652222]},"properties":{"nome":"11","tipo":"abertura","bairro":"CANA\u00c3"}},{"type":"Feature","geometry":{"type":"Point","coordinates":[-41.313049,-21.652198]},"properties":{"nome":"12","tipo":"abertura","bairro":"CANA\u00c3"}},{"type":"Feature","geometry":{"type":"Point","coordinates":[-41.31332,-21.652722]},"properties":{"nome":"13","tipo":"abertura","bairro":"CANA\u00c3"}},{"type":"Feature","geometry":{"type":"Point","coordinates":[-41.312842,-21.653426]},"properties":{"nome":"14","tipo":"abertura","bairro":"CANA\u00c3"}},{"type":"Feature","geometry":{"type":"Point","coordinates":[-41.311693,-21.648369]},"properties":{"nome":"15","tipo":"caixa_ftth","bairro":"CANA\u00c3"}},{"type":"Feature","geometry":{"type":"Point","coordinates":[-41.311634,-21.651052]},"properties":{"nome":"FTTH","tipo":"caixa_ftth","bairro":"CANA\u00c3"}},{"type":"Feature","geometry":{"type":"Point","coordinates":[-41.318228,-21.650666]},"properties":{"nome":"1","tipo":"abertura","bairro":"CANA\u00c3"}},{"type":"Feature","geometry":{"type":"Point","coordinates":[-41.317354,-21.650662]},"properties":{"nome":"2","tipo":"abertura","bairro":"CANA\u00c3"}},{"type":"Feature","geometry":{"type":"Point","coordinates":[-41.316521,-21.650649]},"properties":{"nome":"3","tipo":"abertura","bairro":"CANA\u00c3"}},{"type":"Feature","geometry":{"type":"Point","coordinates":[-41.315649,-21.650638]},"properties":{"nome":"4","tipo":"abertura","bairro":"CANA\u00c3"}},{"type":"Feature","geometry":{"type":"Point","coordinates":[-41.314761,-21.650605]},"properties":{"nome":"5","tipo":"abertura","bairro":"CANA\u00c3"}},{"type":"Feature","geometry":{"type":"Point","coordinates":[-41.313838,-21.650607]},"properties":{"nome":"6","tipo":"abertura","bairro":"CANA\u00c3"}},{"type":"Feature","geometry":{"type":"Point","coordinates":[-41.313783,-21.651103]},"properties":{"nome":"7","tipo":"abertura","bairro":"CANA\u00c3"}},{"type":"Feature","geometry":{"type":"Point","coordinates":[-41.31469,-21.651126]},"properties":{"nome":"8","tipo":"abertura","bairro":"CANA\u00c3"}},{"type":"Feature","geometry":{"type":"Point","coordinates":[-41.315591,-21.651125]},"properties":{"nome":"9","tipo":"abertura","bairro":"CANA\u00c3"}},{"type":"Feature","geometry":{"type":"Point","coordinates":[-41.316513,-21.651154]},"properties":{"nome":"10","tipo":"abertura","bairro":"CANA\u00c3"}},{"type":"Feature","geometry":{"type":"Point","coordinates":[-41.317354,-21.651169]},"properties":{"nome":"11","tipo":"abertura","bairro":"CANA\u00c3"}},{"type":"Feature","geometry":{"type":"Point","coordinates":[-41.318229,-21.651171]},"properties":{"nome":"12","tipo":"abertura","bairro":"CANA\u00c3"}},{"type":"Feature","geometry":{"type":"Point","coordinates":[-41.317351,-21.652685]},"properties":{"nome":"13","tipo":"abertura","bairro":"CANA\u00c3"}},{"type":"Feature","geometry":{"type":"Point","coordinates":[-41.318128,-21.65315]},"properties":{"nome":"14","tipo":"abertura","bairro":"CANA\u00c3"}},{"type":"Feature","geometry":{"type":"Point","coordinates":[-41.318162,-21.65243]},"properties":{"nome":"15","tipo":"abertura","bairro":"CANA\u00c3"}},{"type":"Feature","geometry":{"type":"Point","coordinates":[-41.315016,-21.680261]},"properties":{"nome":"1","tipo":"abertura","bairro":"CANA\u00c3"}},{"type":"Feature","geometry":{"type":"Point","coordinates":[-41.314134,-21.680366]},"properties":{"nome":"2","tipo":"abertura","bairro":"CANA\u00c3"}},{"type":"Feature","geometry":{"type":"Point","coordinates":[-41.31295,-21.680447]},"properties":{"nome":"3","tipo":"abertura","bairro":"CANA\u00c3"}},{"type":"Feature","geometry":{"type":"Point","coordinates":[-41.312174,-21.680566]},"properties":{"nome":"4","tipo":"abertura","bairro":"CANA\u00c3"}},{"type":"Feature","geometry":{"type":"Point","coordinates":[-41.315143,-21.679535]},"properties":{"nome":"5","tipo":"abertura","bairro":"CANA\u00c3"}},{"type":"Feature","geometry":{"type":"Point","coordinates":[-41.31409,-21.679635]},"properties":{"nome":"6","tipo":"abertura","bairro":"CANA\u00c3"}},{"type":"Feature","geometry":{"type":"Point","coordinates":[-41.313134,-21.67983]},"properties":{"nome":"7","tipo":"abertura","bairro":"CANA\u00c3"}},{"type":"Feature","geometry":{"type":"Point","coordinates":[-41.312232,-21.679893]},"properties":{"nome":"8","tipo":"abertura","bairro":"CANA\u00c3"}},{"type":"Feature","geometry":{"type":"Point","coordinates":[-41.311483,-21.679938]},"properties":{"nome":"9","tipo":"abertura","bairro":"CANA\u00c3"}},{"type":"Feature","geometry":{"type":"Point","coordinates":[-41.314854,-21.678866]},"properties":{"nome":"10","tipo":"abertura","bairro":"CANA\u00c3"}},{"type":"Feature","geometry":{"type":"Point","coordinates":[-41.313951,-21.679047]},"properties":{"nome":"11","tipo":"abertura","bairro":"CANA\u00c3"}},{"type":"Feature","geometry":{"type":"Point","coordinates":[-41.313223,-21.67906]},"properties":{"nome":"12","tipo":"abertura","bairro":"CANA\u00c3"}},{"type":"Feature","geometry":{"type":"Point","coordinates":[-41.312382,-21.67926]},"properties":{"nome":"13","tipo":"abertura","bairro":"CANA\u00c3"}},{"type":"Feature","geometry":{"type":"Point","coordinates":[-41.311392,-21.679294]},"properties":{"nome":"14","tipo":"abertura","bairro":"CANA\u00c3"}},{"type":"Feature","geometry":{"type":"Point","coordinates":[-41.313214,-21.679865]},"properties":{"nome":"CEO MINI","tipo":"emenda","bairro":"CANA\u00c3"}},{"type":"Feature","geometry":{"type":"Point","coordinates":[-41.314797,-21.678302]},"properties":{"nome":"1","tipo":"abertura","bairro":"CANA\u00c3"}},{"type":"Feature","geometry":{"type":"Point","coordinates":[-41.313934,-21.678372]},"properties":{"nome":"2","tipo":"abertura","bairro":"CANA\u00c3"}},{"type":"Feature","geometry":{"type":"Point","coordinates":[-41.313267,-21.678453]},"properties":{"nome":"3","tipo":"abertura","bairro":"CANA\u00c3"}},{"type":"Feature","geometry":{"type":"Point","coordinates":[-41.312122,-21.678575]},"properties":{"nome":"4","tipo":"abertura","bairro":"CANA\u00c3"}},{"type":"Feature","geometry":{"type":"Point","coordinates":[-41.311266,-21.678618]},"properties":{"nome":"5","tipo":"abertura","bairro":"CANA\u00c3"}},{"type":"Feature","geometry":{"type":"Point","coordinates":[-41.313933,-21.677781]},"properties":{"nome":"6","tipo":"abertura","bairro":"CANA\u00c3"}},{"type":"Feature","geometry":{"type":"Point","coordinates":[-41.312973,-21.677805]},"properties":{"nome":"7","tipo":"abertura","bairro":"CANA\u00c3"}},{"type":"Feature","geometry":{"type":"Point","coordinates":[-41.312298,-21.677868]},"properties":{"nome":"8","tipo":"abertura","bairro":"CANA\u00c3"}},{"type":"Feature","geometry":{"type":"Point","coordinates":[-41.311448,-21.677973]},"properties":{"nome":"9","tipo":"abertura","bairro":"CANA\u00c3"}},{"type":"Feature","geometry":{"type":"Point","coordinates":[-41.312492,-21.677246]},"properties":{"nome":"10","tipo":"abertura","bairro":"CANA\u00c3"}},{"type":"Feature","geometry":{"type":"Point","coordinates":[-41.311291,-21.683596]},"properties":{"nome":"1","tipo":"abertura","bairro":"CANA\u00c3"}},{"type":"Feature","geometry":{"type":"Point","coordinates":[-41.312666,-21.683459]},"properties":{"nome":"2","tipo":"abertura","bairro":"CANA\u00c3"}},{"type":"Feature","geometry":{"type":"Point","coordinates":[-41.313283,-21.683378]},"properties":{"nome":"3","tipo":"abertura","bairro":"CANA\u00c3"}},{"type":"Feature","geometry":{"type":"Point","coordinates":[-41.314295,-21.683337]},"properties":{"nome":"4","tipo":"abertura","bairro":"CANA\u00c3"}},{"type":"Feature","geometry":{"type":"Point","coordinates":[-41.315283,-21.683169]},"properties":{"nome":"5","tipo":"abertura","bairro":"CANA\u00c3"}},{"type":"Feature","geometry":{"type":"Point","coordinates":[-41.31225,-21.683081]},"properties":{"nome":"6","tipo":"abertura","bairro":"CANA\u00c3"}},{"type":"Feature","geometry":{"type":"Point","coordinates":[-41.31208,-21.687528]},"properties":{"nome":"1","tipo":"abertura","bairro":"CANA\u00c3"}},{"type":"Feature","geometry":{"type":"Point","coordinates":[-41.312755,-21.687558]},"properties":{"nome":"2","tipo":"abertura","bairro":"CANA\u00c3"}},{"type":"Feature","geometry":{"type":"Point","coordinates":[-41.313403,-21.687524]},"properties":{"nome":"3","tipo":"abertura","bairro":"CANA\u00c3"}},{"type":"Feature","geometry":{"type":"Point","coordinates":[-41.314483,-21.687437]},"properties":{"nome":"4","tipo":"abertura","bairro":"CANA\u00c3"}},{"type":"Feature","geometry":{"type":"Point","coordinates":[-41.315453,-21.687309]},"properties":{"nome":"5","tipo":"abertura","bairro":"CANA\u00c3"}},{"type":"Feature","geometry":{"type":"Point","coordinates":[-41.316376,-21.687181]},"properties":{"nome":"6","tipo":"abertura","bairro":"CANA\u00c3"}},{"type":"Feature","geometry":{"type":"Point","coordinates":[-41.317312,-21.6871]},"properties":{"nome":"7","tipo":"abertura","bairro":"CANA\u00c3"}},{"type":"Feature","geometry":{"type":"Point","coordinates":[-41.318794,-21.686974]},"properties":{"nome":"8","tipo":"abertura","bairro":"CANA\u00c3"}},{"type":"Feature","geometry":{"type":"Point","coordinates":[-41.319189,-21.687598]},"properties":{"nome":"9","tipo":"abertura","bairro":"CANA\u00c3"}},{"type":"Feature","geometry":{"type":"Point","coordinates":[-41.318225,-21.687696]},"properties":{"nome":"10","tipo":"abertura","bairro":"CANA\u00c3"}},{"type":"Feature","geometry":{"type":"Point","coordinates":[-41.315943,-21.687892]},"properties":{"nome":"11","tipo":"abertura","bairro":"CANA\u00c3"}},{"type":"Feature","geometry":{"type":"Point","coordinates":[-41.314992,-21.687986]},"properties":{"nome":"12","tipo":"abertura","bairro":"CANA\u00c3"}},{"type":"Feature","geometry":{"type":"Point","coordinates":[-41.313839,-21.688081]},"properties":{"nome":"13","tipo":"abertura","bairro":"CANA\u00c3"}},{"type":"Feature","geometry":{"type":"Point","coordinates":[-41.312681,-21.688154]},"properties":{"nome":"14","tipo":"abertura","bairro":"CANA\u00c3"}},{"type":"Feature","geometry":{"type":"Point","coordinates":[-41.312073,-21.688199]},"properties":{"nome":"15","tipo":"abertura","bairro":"CANA\u00c3"}},{"type":"Feature","geometry":{"type":"Point","coordinates":[-41.316718,-21.686701]},"properties":{"nome":"1","tipo":"abertura","bairro":"CANA\u00c3"}},{"type":"Feature","geometry":{"type":"Point","coordinates":[-41.315972,-21.686851]},"properties":{"nome":"2","tipo":"abertura","bairro":"CANA\u00c3"}},{"type":"Feature","geometry":{"type":"Point","coordinates":[-41.315623,-21.686508]},"properties":{"nome":"3","tipo":"abertura","bairro":"CANA\u00c3"}},{"type":"Feature","geometry":{"type":"Point","coordinates":[-41.316329,-21.686445]},"properties":{"nome":"4","tipo":"abertura","bairro":"CANA\u00c3"}},{"type":"Feature","geometry":{"type":"Point","coordinates":[-41.315817,-21.685987]},"properties":{"nome":"5","tipo":"abertura","bairro":"CANA\u00c3"}},{"type":"Feature","geometry":{"type":"Point","coordinates":[-41.316503,-21.685908]},"properties":{"nome":"6","tipo":"abertura","bairro":"CANA\u00c3"}},{"type":"Feature","geometry":{"type":"Point","coordinates":[-41.317588,-21.685791]},"properties":{"nome":"7","tipo":"abertura","bairro":"CANA\u00c3"}},{"type":"Feature","geometry":{"type":"Point","coordinates":[-41.317991,-21.685747]},"properties":{"nome":"8","tipo":"abertura","bairro":"CANA\u00c3"}},{"type":"Feature","geometry":{"type":"Point","coordinates":[-41.31801,-21.686146]},"properties":{"nome":"9","tipo":"abertura","bairro":"CANA\u00c3"}},{"type":"Feature","geometry":{"type":"Point","coordinates":[-41.317535,-21.686227]},"properties":{"nome":"10","tipo":"abertura","bairro":"CANA\u00c3"}},{"type":"Feature","geometry":{"type":"Point","coordinates":[-41.313211,-21.693697]},"properties":{"nome":"1","tipo":"abertura","bairro":"CANA\u00c3"}},{"type":"Feature","geometry":{"type":"Point","coordinates":[-41.312796,-21.693973]},"properties":{"nome":"2 (16)","tipo":"abertura","bairro":"CANA\u00c3"}},{"type":"Feature","geometry":{"type":"Point","coordinates":[-41.312809,-21.693412]},"properties":{"nome":"3","tipo":"abertura","bairro":"CANA\u00c3"}},{"type":"Feature","geometry":{"type":"Point","coordinates":[-41.31239,-21.694084]},"properties":{"nome":"4 (19)","tipo":"abertura","bairro":"CANA\u00c3"}},{"type":"Feature","geometry":{"type":"Point","coordinates":[-41.312414,-21.693406]},"properties":{"nome":"5 (25)","tipo":"abertura","bairro":"CANA\u00c3"}},{"type":"Feature","geometry":{"type":"Point","coordinates":[-41.311976,-21.694096]},"properties":{"nome":"6","tipo":"abertura","bairro":"CANA\u00c3"}},{"type":"Feature","geometry":{"type":"Point","coordinates":[-41.312005,-21.69338]},"properties":{"nome":"7","tipo":"abertura","bairro":"CANA\u00c3"}},{"type":"Feature","geometry":{"type":"Point","coordinates":[-41.311566,-21.694143]},"properties":{"nome":"8 (19)","tipo":"abertura","bairro":"CANA\u00c3"}},{"type":"Feature","geometry":{"type":"Point","coordinates":[-41.311582,-21.693465]},"properties":{"nome":"9","tipo":"abertura","bairro":"CANA\u00c3"}},{"type":"Feature","geometry":{"type":"LineString","coordinates":[[-41.314758,-21.656465],[-41.313886,-21.656205]]},"properties":{"nome":"94-M","tipo":"backbone","bairro":"CANA\u00c3"}},{"type":"Feature","geometry":{"type":"LineString","coordinates":[[-41.315235,-21.655684],[-41.314911,-21.656226],[-41.314816,-21.65636],[-41.314755,-21.656465]]},"properties":{"nome":"99-M","tipo":"backbone","bairro":"CANA\u00c3"}},{"type":"Feature","geometry":{"type":"LineString","coordinates":[[-41.31523,-21.655679],[-41.31494,-21.656166]]},"properties":{"nome":"61-M","tipo":"backbone","bairro":"CANA\u00c3"}},{"type":"Feature","geometry":{"type":"LineString","coordinates":[[-41.313897,-21.656209],[-41.313034,-21.655889]]},"properties":{"nome":"96-M","tipo":"backbone","bairro":"CANA\u00c3"}},{"type":"Feature","geometry":{"type":"LineString","coordinates":[[-41.315798,-21.656237],[-41.315157,-21.655869]]},"properties":{"nome":"Caminho sem t\u00edtulo","tipo":"distribuicao","bairro":"CANA\u00c3"}},{"type":"Feature","geometry":{"type":"LineString","coordinates":[[-41.31415,-21.655895],[-41.313329,-21.65561]]},"properties":{"nome":"90-M","tipo":"backbone","bairro":"CANA\u00c3"}},{"type":"Feature","geometry":{"type":"LineString","coordinates":[[-41.314939,-21.656164],[-41.314904,-21.656128],[-41.314145,-21.655892]]},"properties":{"nome":"88-M","tipo":"backbone","bairro":"CANA\u00c3"}},{"type":"Feature","geometry":{"type":"LineString","coordinates":[[-41.31333,-21.655608],[-41.312746,-21.655421],[-41.312819,-21.655646]]},"properties":{"nome":"90-M","tipo":"backbone","bairro":"CANA\u00c3"}},{"type":"Feature","geometry":{"type":"LineString","coordinates":[[-41.315248,-21.655673],[-41.315151,-21.655867]]},"properties":{"nome":"103-M","tipo":"backbone","bairro":"CANA\u00c3"}},{"type":"Feature","geometry":{"type":"LineString","coordinates":[[-41.3158,-21.656238],[-41.316483,-21.656633]]},"properties":{"nome":"83-M","tipo":"backbone","bairro":"CANA\u00c3"}},{"type":"Feature","geometry":{"type":"LineString","coordinates":[[-41.315247,-21.655674],[-41.314786,-21.65647],[-41.314968,-21.656432],[-41.315267,-21.656584],[-41.315448,-21.656723]]},"properties":{"nome":"182-M","tipo":"backbone","bairro":"CANA\u00c3"}},{"type":"Feature","geometry":{"type":"LineString","coordinates":[[-41.315449,-21.65672],[-41.315942,-21.657173]]},"properties":{"nome":"71-M","tipo":"backbone","bairro":"CANA\u00c3"}},{"type":"Feature","geometry":{"type":"LineString","coordinates":[[-41.315764,-21.654926],[-41.314998,-21.654472],[-41.314995,-21.65447]]},"properties":{"nome":"94-M","tipo":"backbone","bairro":"CANA\u00c3"}},{"type":"Feature","geometry":{"type":"LineString","coordinates":[[-41.316445,-21.655321],[-41.317135,-21.655724]]},"properties":{"nome":"84-M","tipo":"backbone","bairro":"CANA\u00c3"}},{"type":"Feature","geometry":{"type":"LineString","coordinates":[[-41.317129,-21.655721],[-41.317647,-21.656013],[-41.317747,-21.656095],[-41.317815,-21.656113]]},"properties":{"nome":"83-M","tipo":"backbone","bairro":"CANA\u00c3"}},{"type":"Feature","geometry":{"type":"LineString","coordinates":[[-41.315437,-21.655374],[-41.314647,-21.654934]]},"properties":{"nome":"95-M","tipo":"backbone","bairro":"CANA\u00c3"}},{"type":"Feature","geometry":{"type":"LineString","coordinates":[[-41.315439,-21.655375],[-41.315234,-21.655694]]},"properties":{"nome":"41-M","tipo":"backbone","bairro":"CANA\u00c3"}},{"type":"Feature","geometry":{"type":"LineString","coordinates":[[-41.313963,-21.654525],[-41.313241,-21.654096]]},"properties":{"nome":"88-M","tipo":"backbone","bairro":"CANA\u00c3"}},{"type":"Feature","geometry":{"type":"LineString","coordinates":[[-41.31429,-21.654066],[-41.313546,-21.653632]]},"properties":{"nome":"90-M","tipo":"backbone","bairro":"CANA\u00c3"}},{"type":"Feature","geometry":{"type":"LineString","coordinates":[[-41.314997,-21.654471],[-41.314291,-21.654065]]},"properties":{"nome":"85-M","tipo":"backbone","bairro":"CANA\u00c3"}},{"type":"Feature","geometry":{"type":"LineString","coordinates":[[-41.31327,-21.654111],[-41.313199,-21.654069],[-41.312868,-21.654554]]},"properties":{"nome":"74-M","tipo":"backbone","bairro":"CANA\u00c3"}},{"type":"Feature","geometry":{"type":"LineString","coordinates":[[-41.314645,-21.654934],[-41.31396,-21.654517]]},"properties":{"nome":"84-M","tipo":"backbone","bairro":"CANA\u00c3"}},{"type":"Feature","geometry":{"type":"LineString","coordinates":[[-41.316192,-21.655822],[-41.316934,-21.656246]]},"properties":{"nome":"90-M","tipo":"backbone","bairro":"CANA\u00c3"}},{"type":"Feature","geometry":{"type":"LineString","coordinates":[[-41.315241,-21.655669],[-41.315459,-21.655385],[-41.316195,-21.655827]]},"properties":{"nome":"92-M","tipo":"backbone","bairro":"CANA\u00c3"}},{"type":"Feature","geometry":{"type":"LineString","coordinates":[[-41.315226,-21.65569],[-41.315762,-21.654924]]},"properties":{"nome":"101-M","tipo":"backbone","bairro":"CANA\u00c3"}},{"type":"Feature","geometry":{"type":"LineString","coordinates":[[-41.315253,-21.655675],[-41.315784,-21.654929],[-41.316455,-21.655326]]},"properties":{"nome":"181-M","tipo":"backbone","bairro":"CANA\u00c3"}},{"type":"Feature","geometry":{"type":"LineString","coordinates":[[-41.313576,-21.654949],[-41.312877,-21.654558]]},"properties":{"nome":"84-M","tipo":"backbone","bairro":"CANA\u00c3"}},{"type":"Feature","geometry":{"type":"LineString","coordinates":[[-41.316048,-21.654519],[-41.316494,-21.653848]]},"properties":{"nome":"87-M","tipo":"backbone","bairro":"CANA\u00c3"}},{"type":"Feature","geometry":{"type":"LineString","coordinates":[[-41.316359,-21.654069],[-41.315642,-21.65365]]},"properties":{"nome":"87-M","tipo":"backbone","bairro":"CANA\u00c3"}},{"type":"Feature","geometry":{"type":"LineString","coordinates":[[-41.316506,-21.653838],[-41.316069,-21.654524],[-41.316836,-21.654966]]},"properties":{"nome":"182-M","tipo":"backbone","bairro":"CANA\u00c3"}},{"type":"Feature","geometry":{"type":"LineString","coordinates":[[-41.316832,-21.654964],[-41.317594,-21.655438]]},"properties":{"nome":"Caminho sem t\u00edtulo","tipo":"distribuicao","bairro":"CANA\u00c3"}},{"type":"Feature","geometry":{"type":"LineString","coordinates":[[-41.316501,-21.65386],[-41.316351,-21.654072]]},"properties":{"nome":"28-M","tipo":"backbone","bairro":"CANA\u00c3"}},{"type":"Feature","geometry":{"type":"LineString","coordinates":[[-41.315359,-21.654134],[-41.314654,-21.653703]]},"properties":{"nome":"87-M","tipo":"backbone","bairro":"CANA\u00c3"}},{"type":"Feature","geometry":{"type":"LineString","coordinates":[[-41.317122,-21.654504],[-41.317929,-21.654969]]},"properties":{"nome":"98-M","tipo":"backbone","bairro":"CANA\u00c3"}},{"type":"Feature","geometry":{"type":"LineString","coordinates":[[-41.316507,-21.653854],[-41.316367,-21.654072],[-41.317134,-21.654512]]},"properties":{"nome":"121-M","tipo":"backbone","bairro":"CANA\u00c3"}},{"type":"Feature","geometry":{"type":"LineString","coordinates":[[-41.315358,-21.654135],[-41.316052,-21.654519]]},"properties":{"nome":"83-M","tipo":"backbone","bairro":"CANA\u00c3"}},{"type":"Feature","geometry":{"type":"LineString","coordinates":[[-41.314658,-21.653706],[-41.313891,-21.653248]]},"properties":{"nome":"94-M","tipo":"backbone","bairro":"CANA\u00c3"}},{"type":"Feature","geometry":{"type":"LineString","coordinates":[[-41.314945,-21.653208],[-41.314182,-21.652775]]},"properties":{"nome":"92-M","tipo":"backbone","bairro":"CANA\u00c3"}},{"type":"Feature","geometry":{"type":"LineString","coordinates":[[-41.31564,-21.653651],[-41.314941,-21.653207]]},"properties":{"nome":"87-M","tipo":"backbone","bairro":"CANA\u00c3"}},{"type":"Feature","geometry":{"type":"LineString","coordinates":[[-41.317925,-21.654968],[-41.318532,-21.655349]]},"properties":{"nome":"75-M","tipo":"backbone","bairro":"CANA\u00c3"}},{"type":"Feature","geometry":{"type":"LineString","coordinates":[[-41.317597,-21.655441],[-41.318369,-21.655916]]},"properties":{"nome":"80-M","tipo":"backbone","bairro":"CANA\u00c3"}},{"type":"Feature","geometry":{"type":"LineString","coordinates":[[-41.316679,-21.653584],[-41.315938,-21.653133]]},"properties":{"nome":"91-M","tipo":"backbone","bairro":"CANA\u00c3"}},{"type":"Feature","geometry":{"type":"LineString","coordinates":[[-41.3152,-21.652715],[-41.315941,-21.653134]]},"properties":{"nome":"89-M","tipo":"backbone","bairro":"CANA\u00c3"}},{"type":"Feature","geometry":{"type":"LineString","coordinates":[[-41.316494,-21.65387],[-41.316683,-21.653581]]},"properties":{"nome":"37-M","tipo":"backbone","bairro":"CANA\u00c3"}},{"type":"Feature","geometry":{"type":"LineString","coordinates":[[-41.317477,-21.654041],[-41.318229,-21.654496]]},"properties":{"nome":"92-M","tipo":"backbone","bairro":"CANA\u00c3"}},{"type":"Feature","geometry":{"type":"LineString","coordinates":[[-41.317818,-21.653521],[-41.318537,-21.653947]]},"properties":{"nome":"88-M","tipo":"backbone","bairro":"CANA\u00c3"}},{"type":"Feature","geometry":{"type":"LineString","coordinates":[[-41.316533,-21.653848],[-41.317045,-21.653041],[-41.317818,-21.653521]]},"properties":{"nome":"200","tipo":"distribuicao","bairro":"CANA\u00c3"}},{"type":"Feature","geometry":{"type":"LineString","coordinates":[[-41.316505,-21.653858],[-41.316691,-21.65359],[-41.317478,-21.654044]]},"properties":{"nome":"131-M","tipo":"backbone","bairro":"CANA\u00c3"}},{"type":"Feature","geometry":{"type":"LineString","coordinates":[[-41.316505,-21.653847],[-41.317023,-21.653022],[-41.316225,-21.652603]]},"properties":{"nome":"202-M","tipo":"backbone","bairro":"CANA\u00c3"}},{"type":"Feature","geometry":{"type":"LineString","coordinates":[[-41.315543,-21.651734],[-41.31465,-21.651718]]},"properties":{"nome":"92-M","tipo":"backbone","bairro":"CANA\u00c3"}},{"type":"Feature","geometry":{"type":"LineString","coordinates":[[-41.316414,-21.651756],[-41.315544,-21.651733]]},"properties":{"nome":"90-M","tipo":"backbone","bairro":"CANA\u00c3"}},{"type":"Feature","geometry":{"type":"LineString","coordinates":[[-41.313782,-21.651699],[-41.312707,-21.65173]]},"properties":{"nome":"92-M","tipo":"backbone","bairro":"CANA\u00c3"}},{"type":"Feature","geometry":{"type":"LineString","coordinates":[[-41.31733,-21.65178],[-41.31641,-21.651755]]},"properties":{"nome":"90-M","tipo":"backbone","bairro":"CANA\u00c3"}},{"type":"Feature","geometry":{"type":"LineString","coordinates":[[-41.318061,-21.651476],[-41.317847,-21.651784],[-41.31733,-21.651775]]},"properties":{"nome":"94-M","tipo":"backbone","bairro":"CANA\u00c3"}},{"type":"Feature","geometry":{"type":"LineString","coordinates":[[-41.31755,-21.652286],[-41.316627,-21.652258]]},"properties":{"nome":"95-M","tipo":"backbone","bairro":"CANA\u00c3"}},{"type":"Feature","geometry":{"type":"LineString","coordinates":[[-41.313945,-21.65222],[-41.313614,-21.652218],[-41.313299,-21.652724]]},"properties":{"nome":"99-M","tipo":"backbone","bairro":"CANA\u00c3"}},{"type":"Feature","geometry":{"type":"LineString","coordinates":[[-41.316628,-21.652253],[-41.315729,-21.652241]]},"properties":{"nome":"93-M","tipo":"backbone","bairro":"CANA\u00c3"}},{"type":"Feature","geometry":{"type":"LineString","coordinates":[[-41.318016,-21.651542],[-41.31755,-21.652287]]},"properties":{"nome":"95-M","tipo":"backbone","bairro":"CANA\u00c3"}},{"type":"Feature","geometry":{"type":"LineString","coordinates":[[-41.31573,-21.65224],[-41.314827,-21.652217]]},"properties":{"nome":"93-M","tipo":"backbone","bairro":"CANA\u00c3"}},{"type":"Feature","geometry":{"type":"LineString","coordinates":[[-41.314828,-21.652222],[-41.313952,-21.65221]]},"properties":{"nome":"90-M","tipo":"backbone","bairro":"CANA\u00c3"}},{"type":"Feature","geometry":{"type":"LineString","coordinates":[[-41.313957,-21.652209],[-41.313047,-21.652192]]},"properties":{"nome":"94-M","tipo":"backbone","bairro":"CANA\u00c3"}},{"type":"Feature","geometry":{"type":"LineString","coordinates":[[-41.31465,-21.65172],[-41.313773,-21.651696]]},"properties":{"nome":"90-M","tipo":"backbone","bairro":"CANA\u00c3"}},{"type":"Feature","geometry":{"type":"LineString","coordinates":[[-41.313304,-21.652719],[-41.312842,-21.653426]]},"properties":{"nome":"91-M","tipo":"backbone","bairro":"CANA\u00c3"}},{"type":"Feature","geometry":{"type":"LineString","coordinates":[[-41.312706,-21.651733],[-41.311608,-21.651721],[-41.31168,-21.648348]]},"properties":{"nome":"487M - 6FO","tipo":"distribuicao","bairro":"CANA\u00c3"}},{"type":"Feature","geometry":{"type":"LineString","coordinates":[[-41.316515,-21.651151],[-41.315591,-21.651126]]},"properties":{"nome":"95-M","tipo":"backbone","bairro":"CANA\u00c3"}},{"type":"Feature","geometry":{"type":"LineString","coordinates":[[-41.318228,-21.650661],[-41.317359,-21.650656]]},"properties":{"nome":"90-M","tipo":"backbone","bairro":"CANA\u00c3"}},{"type":"Feature","geometry":{"type":"LineString","coordinates":[[-41.317351,-21.652687],[-41.317698,-21.652134],[-41.318163,-21.652427]]},"properties":{"nome":"129-M","tipo":"backbone","bairro":"CANA\u00c3"}},{"type":"Feature","geometry":{"type":"LineString","coordinates":[[-41.318231,-21.651166],[-41.317357,-21.651164]]},"properties":{"nome":"Caminho sem t\u00edtulo","tipo":"distribuicao","bairro":"CANA\u00c3"}},{"type":"Feature","geometry":{"type":"LineString","coordinates":[[-41.317352,-21.65066],[-41.316523,-21.650638]]},"properties":{"nome":"85 M","tipo":"distribuicao","bairro":"CANA\u00c3"}},{"type":"Feature","geometry":{"type":"LineString","coordinates":[[-41.317354,-21.651167],[-41.316514,-21.651147]]},"properties":{"nome":"87-M","tipo":"backbone","bairro":"CANA\u00c3"}},{"type":"Feature","geometry":{"type":"LineString","coordinates":[[-41.31565,-21.650628],[-41.314756,-21.650594]]},"properties":{"nome":"Caminho sem t\u00edtulo","tipo":"distribuicao","bairro":"CANA\u00c3"}},{"type":"Feature","geometry":{"type":"LineString","coordinates":[[-41.318053,-21.65149],[-41.3183,-21.651169],[-41.318229,-21.651162]]},"properties":{"nome":"51-M","tipo":"backbone","bairro":"CANA\u00c3"}},{"type":"Feature","geometry":{"type":"LineString","coordinates":[[-41.318049,-21.651491],[-41.318297,-21.651218],[-41.318363,-21.651142],[-41.318322,-21.650654],[-41.318231,-21.650658]]},"properties":{"nome":"116-M","tipo":"backbone","bairro":"CANA\u00c3"}},{"type":"Feature","geometry":{"type":"LineString","coordinates":[[-41.316524,-21.650641],[-41.315653,-21.650625]]},"properties":{"nome":"90-M","tipo":"backbone","bairro":"CANA\u00c3"}},{"type":"Feature","geometry":{"type":"LineString","coordinates":[[-41.314692,-21.651123],[-41.313785,-21.651088],[-41.313783,-21.651089]]},"properties":{"nome":"94-M","tipo":"backbone","bairro":"CANA\u00c3"}},{"type":"Feature","geometry":{"type":"LineString","coordinates":[[-41.314758,-21.6506],[-41.313837,-21.650594]]},"properties":{"nome":"Caminho sem t\u00edtulo","tipo":"distribuicao","bairro":"CANA\u00c3"}},{"type":"Feature","geometry":{"type":"LineString","coordinates":[[-41.318046,-21.651508],[-41.317351,-21.652688]]},"properties":{"nome":"149-M","tipo":"backbone","bairro":"CANA\u00c3"}},{"type":"Feature","geometry":{"type":"LineString","coordinates":[[-41.31559,-21.651126],[-41.31469,-21.651122]]},"properties":{"nome":"93-M","tipo":"backbone","bairro":"CANA\u00c3"}},{"type":"Feature","geometry":{"type":"LineString","coordinates":[[-41.317357,-21.652688],[-41.318132,-21.653141]]},"properties":{"nome":"94-M","tipo":"backbone","bairro":"CANA\u00c3"}},{"type":"Feature","geometry":{"type":"LineString","coordinates":[[-41.312533,-21.679101],[-41.31311,-21.679053],[-41.313197,-21.679786],[-41.3134,-21.679762]]},"properties":{"nome":"163-M","tipo":"backbone","bairro":"CANA\u00c3"}},{"type":"Feature","geometry":{"type":"LineString","coordinates":[[-41.312546,-21.679845],[-41.311682,-21.679928]]},"properties":{"nome":"89-M","tipo":"backbone","bairro":"CANA\u00c3"}},{"type":"Feature","geometry":{"type":"LineString","coordinates":[[-41.31502,-21.680256],[-41.314131,-21.680362]]},"properties":{"nome":"92-M","tipo":"backbone","bairro":"CANA\u00c3"}},{"type":"Feature","geometry":{"type":"LineString","coordinates":[[-41.314298,-21.679674],[-41.313397,-21.67976]]},"properties":{"nome":"93-M","tipo":"backbone","bairro":"CANA\u00c3"}},{"type":"Feature","geometry":{"type":"LineString","coordinates":[[-41.312535,-21.679101],[-41.31242,-21.679119]]},"properties":{"nome":"12-M","tipo":"backbone","bairro":"CANA\u00c3"}},{"type":"Feature","geometry":{"type":"LineString","coordinates":[[-41.315179,-21.679574],[-41.314301,-21.679672]]},"properties":{"nome":"91-M","tipo":"backbone","bairro":"CANA\u00c3"}},{"type":"Feature","geometry":{"type":"LineString","coordinates":[[-41.314337,-21.678939],[-41.313294,-21.679024]]},"properties":{"nome":"92-M","tipo":"backbone","bairro":"CANA\u00c3"}},{"type":"Feature","geometry":{"type":"LineString","coordinates":[[-41.314866,-21.678904],[-41.314335,-21.67894]]},"properties":{"nome":"92-M","tipo":"backbone","bairro":"CANA\u00c3"}},{"type":"Feature","geometry":{"type":"LineString","coordinates":[[-41.312538,-21.6791],[-41.313115,-21.679048],[-41.313284,-21.680444]]},"properties":{"nome":"215-M","tipo":"backbone","bairro":"CANA\u00c3"}},{"type":"Feature","geometry":{"type":"LineString","coordinates":[[-41.312539,-21.679089],[-41.3133,-21.679024]]},"properties":{"nome":"79-M","tipo":"backbone","bairro":"CANA\u00c3"}},{"type":"Feature","geometry":{"type":"LineString","coordinates":[[-41.312418,-21.67912],[-41.311555,-21.679208]]},"properties":{"nome":"89-M","tipo":"backbone","bairro":"CANA\u00c3"}},{"type":"Feature","geometry":{"type":"LineString","coordinates":[[-41.313399,-21.679758],[-41.312546,-21.67985]]},"properties":{"nome":"88-M","tipo":"backbone","bairro":"CANA\u00c3"}},{"type":"Feature","geometry":{"type":"LineString","coordinates":[[-41.314133,-21.680359],[-41.313281,-21.680444]]},"properties":{"nome":"88-M","tipo":"backbone","bairro":"CANA\u00c3"}},{"type":"Feature","geometry":{"type":"LineString","coordinates":[[-41.313284,-21.680444],[-41.312386,-21.680549]]},"properties":{"nome":"93-M","tipo":"backbone","bairro":"CANA\u00c3"}},{"type":"Feature","geometry":{"type":"LineString","coordinates":[[-41.31253,-21.679099],[-41.312458,-21.678494],[-41.312276,-21.678511]]},"properties":{"nome":"86-M","tipo":"backbone","bairro":"CANA\u00c3"}},{"type":"Feature","geometry":{"type":"LineString","coordinates":[[-41.312278,-21.678512],[-41.311266,-21.678601]]},"properties":{"nome":"81-M","tipo":"backbone","bairro":"CANA\u00c3"}},{"type":"Feature","geometry":{"type":"LineString","coordinates":[[-41.313158,-21.678443],[-41.314015,-21.678363]]},"properties":{"nome":"89-M","tipo":"backbone","bairro":"CANA\u00c3"}},{"type":"Feature","geometry":{"type":"LineString","coordinates":[[-41.314013,-21.67836],[-41.3148,-21.6783]]},"properties":{"nome":"92-M","tipo":"backbone","bairro":"CANA\u00c3"}},{"type":"Feature","geometry":{"type":"LineString","coordinates":[[-41.312278,-21.678508],[-41.31316,-21.678444]]},"properties":{"nome":"91-M","tipo":"backbone","bairro":"CANA\u00c3"}},{"type":"Feature","geometry":{"type":"LineString","coordinates":[[-41.312298,-21.677866],[-41.311524,-21.677949],[-41.311192,-21.677959],[-41.311205,-21.677362],[-41.312491,-21.677241]]},"properties":{"nome":"269-M","tipo":"backbone","bairro":"CANA\u00c3"}},{"type":"Feature","geometry":{"type":"LineString","coordinates":[[-41.313078,-21.677791],[-41.313828,-21.677733],[-41.313934,-21.677779]]},"properties":{"nome":"87-M","tipo":"backbone","bairro":"CANA\u00c3"}},{"type":"Feature","geometry":{"type":"LineString","coordinates":[[-41.313072,-21.677793],[-41.312296,-21.677863]]},"properties":{"nome":"72-M","tipo":"backbone","bairro":"CANA\u00c3"}},{"type":"Feature","geometry":{"type":"LineString","coordinates":[[-41.313077,-21.677801],[-41.312911,-21.677819],[-41.312938,-21.678452],[-41.312462,-21.678485],[-41.312535,-21.679091]]},"properties":{"nome":"223-M","tipo":"backbone","bairro":"CANA\u00c3"}},{"type":"Feature","geometry":{"type":"LineString","coordinates":[[-41.311896,-21.683529],[-41.311258,-21.683577],[-41.311222,-21.683499]]},"properties":{"nome":"29-M","tipo":"backbone","bairro":"CANA\u00c3"}},{"type":"Feature","geometry":{"type":"LineString","coordinates":[[-41.312664,-21.683463],[-41.31329,-21.683409]]},"properties":{"nome":"72-M","tipo":"backbone","bairro":"CANA\u00c3"}},{"type":"Feature","geometry":{"type":"LineString","coordinates":[[-41.311894,-21.683528],[-41.312663,-21.68346]]},"properties":{"nome":"78-M","tipo":"backbone","bairro":"CANA\u00c3"}},{"type":"Feature","geometry":{"type":"LineString","coordinates":[[-41.31329,-21.68341],[-41.314297,-21.683318],[-41.314816,-21.683263],[-41.315284,-21.683162]]},"properties":{"nome":"168-M","tipo":"backbone","bairro":"CANA\u00c3"}},{"type":"Feature","geometry":{"type":"LineString","coordinates":[[-41.311995,-21.683518],[-41.311897,-21.683444],[-41.311872,-21.683105],[-41.311909,-21.683079],[-41.312241,-21.683054]]},"properties":{"nome":"90M - 6FO","tipo":"distribuicao","bairro":"CANA\u00c3"}},{"type":"Feature","geometry":{"type":"LineString","coordinates":[[-41.316371,-21.687178],[-41.316237,-21.687261],[-41.31631,-21.687865],[-41.315946,-21.687895],[-41.314985,-21.687989],[-41.313834,-21.688081],[-41.312652,-21.688201],[-41.312221,-21.688244],[-41.311889,-21.688275],[-41.311825,-21.688134],[-41.31168,-21.688084],[-41.310774,-21.688096],[-41.310722,-21.688156]]},"properties":{"nome":"679M","tipo":"distribuicao","bairro":"CANA\u00c3"}},{"type":"Feature","geometry":{"type":"LineString","coordinates":[[-41.316373,-21.687185],[-41.315454,-21.687283],[-41.314475,-21.687365],[-41.313382,-21.687459],[-41.312746,-21.687525],[-41.312097,-21.687574]]},"properties":{"nome":"74-M","tipo":"backbone","bairro":"CANA\u00c3"}},{"type":"Feature","geometry":{"type":"LineString","coordinates":[[-41.316376,-21.687193],[-41.316255,-21.687266],[-41.316335,-21.68787],[-41.318342,-21.68768]]},"properties":{"nome":"307-M","tipo":"backbone","bairro":"CANA\u00c3"}},{"type":"Feature","geometry":{"type":"LineString","coordinates":[[-41.319209,-21.687612],[-41.318346,-21.68768]]},"properties":{"nome":"80-M","tipo":"backbone","bairro":"CANA\u00c3"}},{"type":"Feature","geometry":{"type":"LineString","coordinates":[[-41.316375,-21.687193],[-41.317311,-21.687105],[-41.318791,-21.686971]]},"properties":{"nome":"251M - 6F","tipo":"distribuicao","bairro":"CANA\u00c3"}},{"type":"Feature","geometry":{"type":"LineString","coordinates":[[-41.316251,-21.687139],[-41.31681,-21.687075],[-41.316764,-21.686714]]},"properties":{"nome":"98-M","tipo":"backbone","bairro":"CANA\u00c3"}},{"type":"Feature","geometry":{"type":"LineString","coordinates":[[-41.316764,-21.686714],[-41.316709,-21.686324],[-41.316497,-21.686346]]},"properties":{"nome":"65-M","tipo":"backbone","bairro":"CANA\u00c3"}},{"type":"Feature","geometry":{"type":"LineString","coordinates":[[-41.316022,-21.686804],[-41.316764,-21.686715]]},"properties":{"nome":"90-M","tipo":"backbone","bairro":"CANA\u00c3"}},{"type":"Feature","geometry":{"type":"LineString","coordinates":[[-41.316496,-21.686347],[-41.31559,-21.686438]]},"properties":{"nome":"94-M","tipo":"backbone","bairro":"CANA\u00c3"}},{"type":"Feature","geometry":{"type":"LineString","coordinates":[[-41.317511,-21.685824],[-41.316613,-21.68592]]},"properties":{"nome":"93-M","tipo":"backbone","bairro":"CANA\u00c3"}},{"type":"Feature","geometry":{"type":"LineString","coordinates":[[-41.316371,-21.687175],[-41.317312,-21.687088],[-41.317628,-21.687058],[-41.317529,-21.686227]]},"properties":{"nome":"228-M","tipo":"backbone","bairro":"CANA\u00c3"}},{"type":"Feature","geometry":{"type":"LineString","coordinates":[[-41.317531,-21.686227],[-41.317498,-21.685921],[-41.317584,-21.685788]]},"properties":{"nome":"49-M","tipo":"backbone","bairro":"CANA\u00c3"}},{"type":"Feature","geometry":{"type":"LineString","coordinates":[[-41.316611,-21.685921],[-41.315816,-21.686016]]},"properties":{"nome":"82-M","tipo":"backbone","bairro":"CANA\u00c3"}},{"type":"Feature","geometry":{"type":"LineString","coordinates":[[-41.317504,-21.685826],[-41.317979,-21.68577]]},"properties":{"nome":"49-M","tipo":"backbone","bairro":"CANA\u00c3"}},{"type":"Feature","geometry":{"type":"LineString","coordinates":[[-41.317981,-21.685771],[-41.31802,-21.686097],[-41.318019,-21.686093]]},"properties":{"nome":"70-M","tipo":"backbone","bairro":"CANA\u00c3"}},{"type":"Feature","geometry":{"type":"LineString","coordinates":[[-41.313212,-21.693694],[-41.313203,-21.694012],[-41.313135,-21.694179],[-41.312786,-21.694218],[-41.312802,-21.693968]]},"properties":{"nome":"119M - 6F","tipo":"distribuicao","bairro":"CANA\u00c3"}},{"type":"Feature","geometry":{"type":"LineString","coordinates":[[-41.312805,-21.693427],[-41.312792,-21.69398],[-41.312769,-21.694217],[-41.31233,-21.694263],[-41.312398,-21.694086]]},"properties":{"nome":"154M - 6F","tipo":"distribuicao","bairro":"CANA\u00c3"}},{"type":"Feature","geometry":{"type":"LineString","coordinates":[[-41.312413,-21.693412],[-41.312386,-21.694091]]},"properties":{"nome":"75M - 6F","tipo":"distribuicao","bairro":"CANA\u00c3"}},{"type":"Feature","geometry":{"type":"LineString","coordinates":[[-41.312005,-21.693393],[-41.311985,-21.694104]]},"properties":{"nome":"79M - 6F","tipo":"distribuicao","bairro":"CANA\u00c3"}},{"type":"Feature","geometry":{"type":"LineString","coordinates":[[-41.311971,-21.694091],[-41.311974,-21.694298],[-41.311568,-21.694337],[-41.311569,-21.694142],[-41.311581,-21.693478]]},"properties":{"nome":"160M - 6F","tipo":"distribuicao","bairro":"CANA\u00c3"}},{"type":"Feature","geometry":{"type":"LineString","coordinates":[[-41.311557,-21.694144],[-41.311555,-21.694338],[-41.311405,-21.694349],[-41.311352,-21.694495],[-41.310909,-21.695183],[-41.310406,-21.695416]]},"properties":{"nome":"201M - 6F","tipo":"distribuicao","bairro":"CANA\u00c3"}},{"type":"Feature","geometry":{"type":"LineString","coordinates":[[-41.312388,-21.694078],[-41.312316,-21.694263],[-41.311984,-21.694295],[-41.311986,-21.694099]]},"properties":{"nome":"78M - 12F","tipo":"distribuicao","bairro":"CANA\u00c3"}},{"type":"Feature","geometry":{"type":"Point","coordinates":[-41.312392,-21.694036]},"properties":{"nome":"\u00c1REA 1076","tipo":"ponto","bairro":"CANA\u00c3"}},{"type":"Feature","geometry":{"type":"LineString","coordinates":[[-41.316221,-21.687163],[-41.316098,-21.687377],[-41.316134,-21.68763],[-41.314969,-21.68774],[-41.314994,-21.687984]]},"properties":{"nome":"F8","tipo":"distribuicao","bairro":"CANA\u00c3"}},{"type":"Feature","geometry":{"type":"LineString","coordinates":[[-41.312395,-21.694078],[-41.312348,-21.694338],[-41.31189,-21.694383],[-41.311873,-21.694115],[-41.311983,-21.694106]]},"properties":{"nome":"F9","tipo":"distribuicao","bairro":"CANA\u00c3"}},{"type":"Feature","geometry":{"type":"LineString","coordinates":[[-41.312395,-21.694078],[-41.312369,-21.694364],[-41.311856,-21.694415],[-41.311833,-21.694121]]},"properties":{"nome":"F10","tipo":"distribuicao","bairro":"CANA\u00c3"}},{"type":"Feature","geometry":{"type":"LineString","coordinates":[[-41.311836,-21.694127],[-41.311837,-21.693407],[-41.312009,-21.693389]]},"properties":{"nome":"F6","tipo":"distribuicao","bairro":"CANA\u00c3"}},{"type":"Feature","geometry":{"type":"LineString","coordinates":[[-41.312395,-21.694078],[-41.312394,-21.694392],[-41.311995,-21.694431]]},"properties":{"nome":"F11","tipo":"distribuicao","bairro":"CANA\u00c3"}},{"type":"Feature","geometry":{"type":"LineString","coordinates":[[-41.311998,-21.694426],[-41.311494,-21.694474],[-41.31147,-21.694146],[-41.31156,-21.694148]]},"properties":{"nome":"F5","tipo":"distribuicao","bairro":"CANA\u00c3"}},{"type":"Feature","geometry":{"type":"LineString","coordinates":[[-41.312395,-21.694078],[-41.31241,-21.69442],[-41.311995,-21.694463]]},"properties":{"nome":"F12","tipo":"distribuicao","bairro":"CANA\u00c3"}},{"type":"Feature","geometry":{"type":"LineString","coordinates":[[-41.311992,-21.694468],[-41.311461,-21.694509],[-41.311389,-21.69347],[-41.31157,-21.693463]]},"properties":{"nome":"F6","tipo":"distribuicao","bairro":"CANA\u00c3"}},{"type":"Feature","geometry":{"type":"LineString","coordinates":[[-41.312392,-21.694089],[-41.312291,-21.694067],[-41.312298,-21.693399],[-41.312406,-21.693404]]},"properties":{"nome":"F6","tipo":"distribuicao","bairro":"CANA\u00c3"}},{"type":"Feature","geometry":{"type":"LineString","coordinates":[[-41.312395,-21.694086],[-41.31249,-21.694107],[-41.312663,-21.694087],[-41.312669,-21.693976],[-41.312791,-21.693976]]},"properties":{"nome":"F4","tipo":"distribuicao","bairro":"CANA\u00c3"}},{"type":"Feature","geometry":{"type":"LineString","coordinates":[[-41.312395,-21.694086],[-41.312482,-21.694152],[-41.312703,-21.69413],[-41.31271,-21.694006],[-41.312791,-21.693976]]},"properties":{"nome":"F3","tipo":"distribuicao","bairro":"CANA\u00c3"}},{"type":"Feature","geometry":{"type":"LineString","coordinates":[[-41.31262,-21.693972],[-41.312636,-21.69341],[-41.312809,-21.693413]]},"properties":{"nome":"F5","tipo":"distribuicao","bairro":"CANA\u00c3"}},{"type":"Feature","geometry":{"type":"LineString","coordinates":[[-41.312395,-21.694086],[-41.3125,-21.694067],[-41.312619,-21.694055],[-41.312618,-21.693971]]},"properties":{"nome":"F5","tipo":"distribuicao","bairro":"CANA\u00c3"}},{"type":"Feature","geometry":{"type":"LineString","coordinates":[[-41.312395,-21.694086],[-41.312479,-21.694186],[-41.313075,-21.694131],[-41.313084,-21.693694],[-41.313198,-21.693699]]},"properties":{"nome":"F6","tipo":"distribuicao","bairro":"CANA\u00c3"}},{"type":"Feature","geometry":{"type":"Point","coordinates":[-41.313223,-21.693495]},"properties":{"nome":"07247","tipo":"ponto","bairro":"CANA\u00c3"}},{"type":"Feature","geometry":{"type":"Point","coordinates":[-41.312775,-21.694187]},"properties":{"nome":"07846","tipo":"ponto","bairro":"CANA\u00c3"}},{"type":"Feature","geometry":{"type":"Point","coordinates":[-41.312324,-21.694228]},"properties":{"nome":"08045","tipo":"ponto","bairro":"CANA\u00c3"}},{"type":"Feature","geometry":{"type":"Point","coordinates":[-41.311985,-21.694263]},"properties":{"nome":"08145","tipo":"ponto","bairro":"CANA\u00c3"}},{"type":"Feature","geometry":{"type":"Point","coordinates":[-41.311568,-21.694304]},"properties":{"nome":"08245","tipo":"ponto","bairro":"CANA\u00c3"}},{"type":"Feature","geometry":{"type":"Point","coordinates":[-41.311579,-21.694124]},"properties":{"nome":"08344","tipo":"ponto","bairro":"CANA\u00c3"}},{"type":"Feature","geometry":{"type":"Point","coordinates":[-41.311593,-21.693428]},"properties":{"nome":"08644","tipo":"ponto","bairro":"CANA\u00c3"}},{"type":"Feature","geometry":{"type":"Point","coordinates":[-41.311494,-21.693358]},"properties":{"nome":"08743","tipo":"ponto","bairro":"CANA\u00c3"}},{"type":"Feature","geometry":{"type":"Point","coordinates":[-41.312067,-21.693329]},"properties":{"nome":"08943","tipo":"ponto","bairro":"CANA\u00c3"}},{"type":"Feature","geometry":{"type":"Point","coordinates":[-41.312276,-21.693308]},"properties":{"nome":"09043","tipo":"ponto","bairro":"CANA\u00c3"}},{"type":"Feature","geometry":{"type":"Point","coordinates":[-41.31199,-21.694063]},"properties":{"nome":"09443","tipo":"ponto","bairro":"CANA\u00c3"}},{"type":"Feature","geometry":{"type":"Point","coordinates":[-41.312398,-21.694054]},"properties":{"nome":"09543","tipo":"ponto","bairro":"CANA\u00c3"}},{"type":"Feature","geometry":{"type":"Point","coordinates":[-41.312432,-21.693374]},"properties":{"nome":"09843","tipo":"ponto","bairro":"CANA\u00c3"}},{"type":"Feature","geometry":{"type":"Point","coordinates":[-41.312719,-21.693319]},"properties":{"nome":"09943","tipo":"ponto","bairro":"CANA\u00c3"}},{"type":"Feature","geometry":{"type":"Point","coordinates":[-41.312811,-21.69338]},"properties":{"nome":"10046","tipo":"ponto","bairro":"CANA\u00c3"}},{"type":"Feature","geometry":{"type":"Point","coordinates":[-41.312806,-21.693926]},"properties":{"nome":"10246","tipo":"ponto","bairro":"CANA\u00c3"}},{"type":"Feature","geometry":{"type":"Point","coordinates":[-41.312903,-21.693279]},"properties":{"nome":"10348","tipo":"ponto","bairro":"CANA\u00c3"}},{"type":"Feature","geometry":{"type":"Point","coordinates":[-41.312599,-21.693097]},"properties":{"nome":"10446","tipo":"ponto","bairro":"CANA\u00c3"}},{"type":"Feature","geometry":{"type":"Point","coordinates":[-41.312605,-21.692942]},"properties":{"nome":"10546","tipo":"ponto","bairro":"CANA\u00c3"}},{"type":"Feature","geometry":{"type":"Point","coordinates":[-41.312555,-21.694207]},"properties":{"nome":"07946","tipo":"ponto","bairro":"CANA\u00c3"}},{"type":"Feature","geometry":{"type":"Point","coordinates":[-41.311591,-21.693698]},"properties":{"nome":"08544","tipo":"ponto","bairro":"CANA\u00c3"}},{"type":"Feature","geometry":{"type":"Point","coordinates":[-41.311784,-21.693344]},"properties":{"nome":"08843","tipo":"ponto","bairro":"CANA\u00c3"}},{"type":"Feature","geometry":{"type":"Point","coordinates":[-41.311996,-21.69363]},"properties":{"nome":"09243","tipo":"ponto","bairro":"CANA\u00c3"}},{"type":"Feature","geometry":{"type":"Point","coordinates":[-41.312412,-21.693596]},"properties":{"nome":"09743","tipo":"ponto","bairro":"CANA\u00c3"}},{"type":"Feature","geometry":{"type":"Point","coordinates":[-41.312821,-21.693645]},"properties":{"nome":"10146","tipo":"ponto","bairro":"CANA\u00c3"}}]}